{
  "type": "FeatureCollection",
  "features": [
    {
      "type": "Feature",
      "properties": {
        "norad_id": 33860,
        "name": "IRIDIUM 33 DEB",
        "group": "iridium-33-debris",
        "lat": -14.359809675440422,
        "lon": -157.03223645726308,
        "alt_km": 675.8011979796156,
        "timestamp": "2025-12-24T11:33:00.402462+00:00",
        "meta_object_name": "IRIDIUM 33 DEB",
        "meta_object_id": "1997-051AD",
        "meta_epoch": "2025-12-24T02:44:42.302400",
        "meta_mean_motion": 14.67498252,
        "meta_eccentricity": 0.0006093,
        "meta_inclination": 86.3822,
        "meta_ra_of_asc_node": 22.2021,
        "meta_arg_of_pericenter": 313.142,
        "meta_mean_anomaly": 104.2436,
        "meta_ephemeris_type": 0,
        "meta_classification_type": "U",
        "meta_norad_cat_id": 33860,
        "meta_element_set_no": 999,
        "meta_rev_at_epoch": 88889,
        "meta_bstar": 0.00114,
        "meta_mean_motion_dot": 6.482e-05,
        "meta_mean_motion_ddot": 0,
        "tle_line1": "1 33860U 97051AD  25358.11437850  .00006482  00000+0  11400-2 0  9991",
        "tle_line2": "2 33860  86.3822  22.2021 0006093 313.1420 104.2436 14.67498252888891"
      },
      "geometry": {
        "type": "Point",
        "coordinates": [
          -157.03223645726308,
          -14.359809675440422
        ]
      }
    },
    {
      "type": "Feature",
      "properties": {
        "norad_id": 33862,
        "name": "IRIDIUM 33 DEB",
        "group": "iridium-33-debris",
        "lat": -41.07243013626585,
        "lon": 29.212950860730167,
        "alt_km": 656.5383852407494,
        "timestamp": "2025-12-24T11:33:00.402474+00:00",
        "meta_object_name": "IRIDIUM 33 DEB",
        "meta_object_id": "1997-051AF",
        "meta_epoch": "2025-12-24T03:52:50.668320",
        "meta_mean_motion": 14.69651398,
        "meta_eccentricity": 0.0052233,
        "meta_inclination": 86.4077,
        "meta_ra_of_asc_node": 32.4924,
        "meta_arg_of_pericenter": 30.7851,
        "meta_mean_anomaly": 39.1118,
        "meta_ephemeris_type": 0,
        "meta_classification_type": "U",
        "meta_norad_cat_id": 33862,
        "meta_element_set_no": 999,
        "meta_rev_at_epoch": 88991,
        "meta_bstar": 0.0014716,
        "meta_mean_motion_dot": 8.965e-05,
        "meta_mean_motion_ddot": 0,
        "tle_line1": "1 33862U 97051AF  25358.16169755  .00008965  00000+0  14716-2 0  9995",
        "tle_line2": "2 33862  86.4077  32.4924 0052233  30.7851  39.1118 14.69651398889919"
      },
      "geometry": {
        "type": "Point",
        "coordinates": [
          29.212950860730167,
          -41.07243013626585
        ]
      }
    },
    {
      "type": "Feature",
      "properties": {
        "norad_id": 33866,
        "name": "IRIDIUM 33 DEB",
        "group": "iridium-33-debris",
        "lat": -44.10110493998781,
        "lon": 84.47285122676578,
        "alt_km": 895.1861956163557,
        "timestamp": "2025-12-24T11:33:00.402485+00:00",
        "meta_object_name": "IRIDIUM 33 DEB",
        "meta_object_id": "1997-051AK",
        "meta_epoch": "2025-12-23T14:10:53.283072",
        "meta_mean_motion": 14.25306443,
        "meta_eccentricity": 0.01151166,
        "meta_inclination": 86.2999,
        "meta_ra_of_asc_node": 88.445,
        "meta_arg_of_pericenter": 127.0066,
        "meta_mean_anomaly": 303.4648,
        "meta_ephemeris_type": 0,
        "meta_classification_type": "U",
        "meta_norad_cat_id": 33866,
        "meta_element_set_no": 999,
        "meta_rev_at_epoch": 86965,
        "meta_bstar": 0.00052921027,
        "meta_mean_motion_dot": 1.355e-05,
        "meta_mean_motion_ddot": 0,
        "tle_line1": "1 33866U 97051AK  25357.59089448  .00001355  00000+0  52921-3 0  9992",
        "tle_line2": "2 33866  86.2999  88.4450 0115116 127.0066 303.4648 14.25306443869651"
      },
      "geometry": {
        "type": "Point",
        "coordinates": [
          84.47285122676578,
          -44.10110493998781
        ]
      }
    },
    {
      "type": "Feature",
      "properties": {
        "norad_id": 33867,
        "name": "IRIDIUM 33 DEB",
        "group": "iridium-33-debris",
        "lat": 20.963037450788427,
        "lon": 162.47367779157986,
        "alt_km": 199.29578619848053,
        "timestamp": "2025-12-24T11:33:00.402498+00:00",
        "meta_object_name": "IRIDIUM 33 DEB",
        "meta_object_id": "1997-051AL",
        "meta_epoch": "2025-12-23T20:01:30.593568",
        "meta_mean_motion": 16.07905619,
        "meta_eccentricity": 0.00123823,
        "meta_inclination": 86.3716,
        "meta_ra_of_asc_node": 344.225,
        "meta_arg_of_pericenter": 111.097,
        "meta_mean_anomaly": 249.1645,
        "meta_ephemeris_type": 0,
        "meta_classification_type": "U",
        "meta_norad_cat_id": 33867,
        "meta_element_set_no": 999,
        "meta_rev_at_epoch": 89686,
        "meta_bstar": 0.010041813,
        "meta_mean_motion_dot": 0.05649041,
        "meta_mean_motion_ddot": 0.086118142,
        "tle_line1": "1 33867U 97051AL  25357.83438187  .05649041  86118-1  10042-1 0  9995",
        "tle_line2": "2 33867  86.3716 344.2250 0012382 111.0970 249.1645 16.07905619896867"
      },
      "geometry": {
        "type": "Point",
        "coordinates": [
          162.47367779157986,
          20.963037450788427
        ]
      }
    },
    {
      "type": "Feature",
      "properties": {
        "norad_id": 33870,
        "name": "IRIDIUM 33 DEB",
        "group": "iridium-33-debris",
        "lat": -24.10659983709442,
        "lon": -125.14622067942011,
        "alt_km": 737.3905380479573,
        "timestamp": "2025-12-24T11:33:00.402510+00:00",
        "meta_object_name": "IRIDIUM 33 DEB",
        "meta_object_id": "1997-051AP",
        "meta_epoch": "2025-12-24T04:15:06.179040",
        "meta_mean_motion": 14.45905972,
        "meta_eccentricity": 0.0022581,
        "meta_inclination": 86.3733,
        "meta_ra_of_asc_node": 53.3579,
        "meta_arg_of_pericenter": 141.805,
        "meta_mean_anomaly": 280.099,
        "meta_ephemeris_type": 0,
        "meta_classification_type": "U",
        "meta_norad_cat_id": 33870,
        "meta_element_set_no": 999,
        "meta_rev_at_epoch": 88302,
        "meta_bstar": 0.00071294,
        "meta_mean_motion_dot": 2.561e-05,
        "meta_mean_motion_ddot": 0,
        "tle_line1": "1 33870U 97051AP  25358.17715485  .00002561  00000+0  71294-3 0  9993",
        "tle_line2": "2 33870  86.3733  53.3579 0022581 141.8050 280.0990 14.45905972883027"
      },
      "geometry": {
        "type": "Point",
        "coordinates": [
          -125.14622067942011,
          -24.10659983709442
        ]
      }
    },
    {
      "type": "Feature",
      "properties": {
        "norad_id": 33881,
        "name": "IRIDIUM 33 DEB",
        "group": "iridium-33-debris",
        "lat": 11.770549798099943,
        "lon": -79.11536300989621,
        "alt_km": 667.9480317618845,
        "timestamp": "2025-12-24T11:33:00.402521+00:00",
        "meta_object_name": "IRIDIUM 33 DEB",
        "meta_object_id": "1997-051BA",
        "meta_epoch": "2025-12-24T03:09:43.258752",
        "meta_mean_motion": 14.56771467,
        "meta_eccentricity": 0.0061175,
        "meta_inclination": 86.3859,
        "meta_ra_of_asc_node": 101.7912,
        "meta_arg_of_pericenter": 137.9225,
        "meta_mean_anomaly": 358.0515,
        "meta_ephemeris_type": 0,
        "meta_classification_type": "U",
        "meta_norad_cat_id": 33881,
        "meta_element_set_no": 999,
        "meta_rev_at_epoch": 87666,
        "meta_bstar": 0.0021433,
        "meta_mean_motion_dot": 9.861e-05,
        "meta_mean_motion_ddot": 0,
        "tle_line1": "1 33881U 97051BA  25358.13175068  .00009861  00000+0  21433-2 0  9997",
        "tle_line2": "2 33881  86.3859 101.7912 0061175 137.9225 358.0515 14.56771467876662"
      },
      "geometry": {
        "type": "Point",
        "coordinates": [
          -79.11536300989621,
          11.770549798099943
        ]
      }
    },
    {
      "type": "Feature",
      "properties": {
        "norad_id": 33884,
        "name": "IRIDIUM 33 DEB",
        "group": "iridium-33-debris",
        "lat": -83.82303956825442,
        "lon": -31.401507054647716,
        "alt_km": 637.9506260325697,
        "timestamp": "2025-12-24T11:33:00.402532+00:00",
        "meta_object_name": "IRIDIUM 33 DEB",
        "meta_object_id": "1997-051BD",
        "meta_epoch": "2025-12-24T00:47:57.514848",
        "meta_mean_motion": 14.77644714,
        "meta_eccentricity": 0.0008903,
        "meta_inclination": 86.3696,
        "meta_ra_of_asc_node": 4.7191,
        "meta_arg_of_pericenter": 278.9488,
        "meta_mean_anomaly": 134.745,
        "meta_ephemeris_type": 0,
        "meta_classification_type": "U",
        "meta_norad_cat_id": 33884,
        "meta_element_set_no": 999,
        "meta_rev_at_epoch": 89014,
        "meta_bstar": 0.0015474,
        "meta_mean_motion_dot": 0.00011107,
        "meta_mean_motion_ddot": 0,
        "tle_line1": "1 33884U 97051BD  25358.03330457  .00011107  00000+0  15474-2 0  9998",
        "tle_line2": "2 33884  86.3696   4.7191 0008903 278.9488 134.7450 14.77644714890145"
      },
      "geometry": {
        "type": "Point",
        "coordinates": [
          -31.401507054647716,
          -83.82303956825442
        ]
      }
    }
  ]
}